{
  "type": "FeatureCollection",
  "features": [
    {
      "type": "Feature",
      "properties": {"code":"WH420180001","name":"光谷科创中心A座","use":"办公","building":"yes","year":2008,"building:levels":"6"},
      "geometry": {
        "type": "Polygon",
        "coordinates": [[[114.3991826,30.5065741],[114.3995759,30.5066157],[114.3995174,30.5070259],[114.3991241,30.5069843],[114.3991826,30.5065741]]]
      }
    },
    {
      "type": "Feature",
      "properties": {"code":"WH420180002","name":"光谷公寓1栋","use":"住宅","building":"yes","year":2012,"building:levels":"12"},
      "geometry": {
        "type": "Polygon",
        "coordinates": [[[114.3998388,30.5066917],[114.4002875,30.5066095],[114.4003612,30.5069083],[114.3999125,30.5069905],[114.3998388,30.5066917]]]
      }
    },
    {
      "type": "Feature",
      "properties": {"code":"WH420180003","name":"光谷商务中心","use":"商业","building":"yes","year":2015,"building:levels":"18"},
      "geometry": {
        "type": "Polygon",
        "coordinates": [[[114.4006566,30.506557],[114.4011723,30.5067013],[114.4010434,30.507043],[114.4005277,30.5068987],[114.4006566,30.506557]]]
      }
    },
    {
      "type": "Feature",
      "properties": {"code":"WH420180004","name":"关山产业园1号楼","use":"办公","building":"yes","year":2020,"building:levels":"30"},
      "geometry": {
        "type": "Polygon",
        "coordinates": [[[114.4013721,30.5065645],[114.4017438,30.5065195],[114.4018279,30.5070355],[114.4014562,30.5070805],[114.4013721,30.5065645]]]
      }
    },
    {
      "type": "Feature",
      "properties": {"code":"WH420180005","name":"光谷社区服务中心","use":"公共服务","building":"yes","year":2010},
      "geometry": {
        "type": "Polygon",
        "coordinates": [[[114.3991437,30.5073115],[114.3996314,30.5074085],[114.3995563,30.5076885],[114.3990686,30.5075915],[114.3991437,30.5073115]]]
      }
    },
    {
      "type": "Feature",
      "properties": {"code":"WH420180006","name":"关山学校教学楼","use":"教育","building":"yes","year":2006,"building:levels":"8"},
      "geometry": {
        "type": "Polygon",
        "coordinates": [[[114.3997603,30.5073875],[114.4003087,30.5072431],[114.4004397,30.5076125],[114.3998913,30.5077569],[114.3997603,30.5073875]]]
      }
    },
    {
      "type": "Feature",
      "properties": {"code":"WH420180007","name":"光谷医疗中心","use":"医疗","building":"yes","year":2018,"building:levels":"16"},
      "geometry": {
        "type": "Polygon",
        "coordinates": [[[114.4006848,30.5072501],[114.4010967,30.5073063],[114.4010152,30.5077499],[114.4006033,30.5076937],[114.4006848,30.5072501]]]
      }
    },
    {
      "type": "Feature",
      "properties": {"code":"WH420180008","name":"未来城办公楼","use":"办公","building":"yes","year":2016,"building:levels":"22"},
      "geometry": {
        "type": "Polygon",
        "coordinates": [[[114.4013734,30.5072567],[114.4019574,30.5074498],[114.4018266,30.5077433],[114.4012426,30.5075502],[114.4013734,30.5072567]]]
      }
    },
    {
      "type": "Feature",
      "properties": {"code":"WH420180009","name":"光谷公寓2栋","use":"住宅","building":"yes","year":2022,"building:levels":"35"},
      "geometry": {
        "type": "Polygon",
        "coordinates": [[[114.399053,30.5080092],[114.3995083,30.5079114],[114.399647,30.5083908],[114.3991917,30.5084886],[114.399053,30.5080092]]]
      }
    },
    {
      "type": "Feature",
      "properties": {"code":"WH420180010","name":"软件园商业楼","use":"商业","building":"yes","year":2014,"building:levels":"10"},
      "geometry": {
        "type": "Polygon",
        "coordinates": [[[114.3999425,30.5079988],[114.4002957,30.5080254],[114.4002575,30.5084012],[114.3999043,30.5083746],[114.3999425,30.5079988]]]
      }
    },
    {
      "type": "Feature",
      "properties": {"code":"WH420180011","name":"公共服务中心","use":"公共服务","building":"yes","year":2009},
      "geometry": {
        "type": "Polygon",
        "coordinates": [[[114.4006139,30.5079641],[114.4011953,30.5081077],[114.4010861,30.5084359],[114.4005047,30.5082923],[114.4006139,30.5079641]]]
      }
    },
    {
      "type": "Feature",
      "properties": {"code":"WH420180012","name":"光谷研发中心","use":"办公","building":"yes","year":2019,"building:levels":"26"},
      "geometry": {
        "type": "Polygon",
        "coordinates": [[[114.4012998,30.5080267],[114.4018133,30.5079487],[114.4019002,30.5083733],[114.4013867,30.5084513],[114.4012998,30.5080267]]]
      }
    }
  ]
}
